{"type": "FeatureCollection", "features": [ {"type": "Feature", "properties": {"norad_id": 41836, "name": "HIMAWARI-9", "group": "weather", "lat": -0.03993548479676467, "lon": -67.92452147506457, "alt_km": 35781.021459311254, "timestamp": "2025-12-24T03:53:29.285118+00:00", "meta": {"OBJECT_NAME": "HIMAWARI-9", "OBJECT_ID": "2016-064A", "EPOCH": "2025-12-22T18:58:13.571040", "MEAN_MOTION": 1.00272669, "ECCENTRICITY": 0.00014802, "INCLINATION": 0.0164, "RA_OF_ASC_NODE": 29.9097, "ARG_OF_PERICENTER": 299.5848, "MEAN_ANOMALY": 187.4267, "EPHEMERIS_TYPE": 0, "CLASSIFICATION_TYPE": "U", "NORAD_CAT_ID": 41836, "ELEMENT_SET_NO": 999, "REV_AT_EPOCH": 3344, "BSTAR": 0, "MEAN_MOTION_DOT": 0, "MEAN_MOTION_DDOT": 0}, "tle": {"line1": "1 41836U 16064A   25356.79043485  .00000000  00000+0  00000+0 0  9998", "line2": "2 41836   0.0164  29.9097 0001480 299.5848 187.4267  1.00272669 33441"}}, "geometry": {"type": "Point", "coordinates": [-67.92452147506457, -0.03993548479676467]}}, {"type": "Feature", "properties": {"norad_id": 41866, "name": "GOES 16", "group": "weather", "lat": -0.046178221839269916, "lon": 46.66568380195184, "alt_km": 35796.26072421718, "timestamp": "2025-12-24T03:53:29.285131+00:00", "meta": {"OBJECT_NAME": "GOES 16", "OBJECT_ID": "2016-071A", "EPOCH": "2025-12-23T17:47:59.740224", "MEAN_MOTION": 1.0027184, "ECCENTRICITY": 0.0003131, "INCLINATION": 0.074, "RA_OF_ASC_NODE": 102.3291, "ARG_OF_PERICENTER": 164.0596, "MEAN_ANOMALY": 348.4726, "EPHEMERIS_TYPE": 0, "CLASSIFICATION_TYPE": "U", "NORAD_CAT_ID": 41866, "ELEMENT_SET_NO": 999, "REV_AT_EPOCH": 3334, "BSTAR": 0, "MEAN_MOTION_DOT": -7e-07, "MEAN_MOTION_DDOT": 0}, "tle": {"line1": "1 41866U 16071A   25357.74166366 -.00000070  00000+0  00000+0 0  9997", "line2": "2 41866   0.0740 102.3291 0003131 164.0596 348.4726  1.00271840 33345"}}, "geometry": {"type": "Point", "coordinates": [46.66568380195184, -0.046178221839269916]}}, {"type": "Feature", "properties": {"norad_id": 41882, "name": "FENGYUN 4A", "group": "weather", "lat": -0.43447576865748616, "lon": -85.02089691253515, "alt_km": 35775.80933776322, "timestamp": "2025-12-24T03:53:29.285143+00:00", "meta": {"OBJECT_NAME": "FENGYUN 4A", "OBJECT_ID": "2016-077A", "EPOCH": "2025-12-23T08:35:04.981056", "MEAN_MOTION": 1.00264066, "ECCENTRICITY": 0.0004569, "INCLINATION": 1.8742, "RA_OF_ASC_NODE": 82.3014, "ARG_OF_PERICENTER": 143.3346, "MEAN_ANOMALY": 118.943, "EPHEMERIS_TYPE": 0, "CLASSIFICATION_TYPE": "U", "NORAD_CAT_ID": 41882, "ELEMENT_SET_NO": 999, "REV_AT_EPOCH": 3316, "BSTAR": 0, "MEAN_MOTION_DOT": -3.37e-06, "MEAN_MOTION_DDOT": 0}, "tle": {"line1": "1 41882U 16077A   25357.35769654 -.00000337  00000+0  00000+0 0  9993", "line2": "2 41882   1.8742  82.3014 0004569 143.3346 118.9430  1.00264066 33167"}}, "geometry": {"type": "Point", "coordinates": [-85.02089691253515, -0.43447576865748616]}}, {"type": "Feature", "properties": {"norad_id": 41884, "name": "CYGFM05", "group": "weather", "lat": 20.65065749593414, "lon": 5.139505401061239, "alt_km": 421.3610354652337, "timestamp": "2025-12-24T03:53:29.285155+00:00", "meta": {"OBJECT_NAME": "CYGFM05", "OBJECT_ID": "2016-078A", "EPOCH": "2025-12-23T04:30:42.842304", "MEAN_MOTION": 15.48011044, "ECCENTRICITY": 0.00107446, "INCLINATION": 34.9607, "RA_OF_ASC_NODE": 338.8623, "ARG_OF_PERICENTER": 273.8559, "MEAN_ANOMALY": 86.0935, "EPHEMERIS_TYPE": 0, "CLASSIFICATION_TYPE": "U", "NORAD_CAT_ID": 41884, "ELEMENT_SET_NO": 999, "REV_AT_EPOCH": 50138, "BSTAR": 0.00038374175, "MEAN_MOTION_DOT": 0.00020735, "MEAN_MOTION_DDOT": 0}, "tle": {"line1": "1 41884U 16078A   25357.18799586  .00020735  00000+0  38374-3 0  9996", "line2": "2 41884  34.9607 338.8623 0010744 273.8559  86.0935 15.48011044501380"}}, "geometry": {"type": "Point", "coordinates": [5.139505401061239, 20.65065749593414]}}, {"type": "Feature", "properties": {"norad_id": 41885, "name": "CYGFM04", "group": "weather", "lat": 17.16598001312476, "lon": -26.795720094583007, "alt_km": 409.9872102440122, "timestamp": "2025-12-24T03:53:29.285166+00:00", "meta": {"OBJECT_NAME": "CYGFM04", "OBJECT_ID": "2016-078B", "EPOCH": "2025-12-23T06:07:44.144256", "MEAN_MOTION": 15.50793567, "ECCENTRICITY": 0.00094497, "INCLINATION": 34.9357, "RA_OF_ASC_NODE": 312.8922, "ARG_OF_PERICENTER": 298.7341, "MEAN_ANOMALY": 61.2431, "EPHEMERIS_TYPE": 0, "CLASSIFICATION_TYPE": "U", "NORAD_CAT_ID": 41885, "ELEMENT_SET_NO": 999, "REV_AT_EPOCH": 50157, "BSTAR": 0.00038886279, "MEAN_MOTION_DOT": 0.00023186, "MEAN_MOTION_DDOT": 0}, "tle": {"line1": "1 41885U 16078B   25357.25537204  .00023186  00000+0  38886-3 0  9993", "line2": "2 41885  34.9357 312.8922 0009449 298.7341  61.2431 15.50793567501579"}}, "geometry": {"type": "Point", "coordinates": [-26.795720094583007, 17.16598001312476]}}, {"type": "Feature", "properties": {"norad_id": 41886, "name": "CYGFM02", "group": "weather", "lat": 34.09523636162764, "lon": 49.314352048819046, "alt_km": 410.5282955283992, "timestamp": "2025-12-24T03:53:29.285177+00:00", "meta": {"OBJECT_NAME": "CYGFM02", "OBJECT_ID": "2016-078C", "EPOCH": "2025-12-23T13:33:48.926304", "MEAN_MOTION": 15.52219956, "ECCENTRICITY": 0.0011015, "INCLINATION": 34.9444, "RA_OF_ASC_NODE": 309.0427, "ARG_OF_PERICENTER": 302.4143, "MEAN_ANOMALY": 57.5514, "EPHEMERIS_TYPE": 0, "CLASSIFICATION_TYPE": "U", "NORAD_CAT_ID": 41886, "ELEMENT_SET_NO": 999, "REV_AT_EPOCH": 50175, "BSTAR": 0.00039748, "MEAN_MOTION_DOT": 0.00024971, "MEAN_MOTION_DDOT": 0}, "tle": {"line1": "1 41886U 16078C   25357.56514961  .00024971  00000+0  39748-3 0  9994", "line2": "2 41886  34.9444 309.0427 0011015 302.4143  57.5514 15.52219956501757"}}, "geometry": {"type": "Point", "coordinates": [49.314352048819046, 34.09523636162764]}}, {"type": "Feature", "properties": {"norad_id": 41887, "name": "CYGFM01", "group": "weather", "lat": 33.31463278892841, "lon": 84.49664478046904, "alt_km": 421.48348766819527, "timestamp": "2025-12-24T03:53:29.285188+00:00", "meta": {"OBJECT_NAME": "CYGFM01", "OBJECT_ID": "2016-078D", "EPOCH": "2025-12-23T04:13:36.205536", "MEAN_MOTION": 15.48600258, "ECCENTRICITY": 0.00104718, "INCLINATION": 34.9437, "RA_OF_ASC_NODE": 341.2155, "ARG_OF_PERICENTER": 266.1968, "MEAN_ANOMALY": 93.7556, "EPHEMERIS_TYPE": 0, "CLASSIFICATION_TYPE": "U", "NORAD_CAT_ID": 41887, "ELEMENT_SET_NO": 999, "REV_AT_EPOCH": 50132, "BSTAR": 0.00038375397, "MEAN_MOTION_DOT": 0.00021169, "MEAN_MOTION_DDOT": 0}, "tle": {"line1": "1 41887U 16078D   25357.17611349  .00021169  00000+0  38375-3 0  9991", "line2": "2 41887  34.9437 341.2155 0010471 266.1968  93.7556 15.48600258501327"}}, "geometry": {"type": "Point", "coordinates": [84.49664478046904, 33.31463278892841]}}, {"type": "Feature", "properties": {"norad_id": 41888, "name": "CYGFM08", "group": "weather", "lat": -14.049370737020386, "lon": 158.61933749916668, "alt_km": 417.94996944827653, "timestamp": "2025-12-24T03:53:29.285199+00:00", "meta": {"OBJECT_NAME": "CYGFM08", "OBJECT_ID": "2016-078E", "EPOCH": "2025-12-23T14:38:34.854432", "MEAN_MOTION": 15.49854778, "ECCENTRICITY": 0.0011741, "INCLINATION": 34.9467, "RA_OF_ASC_NODE": 321.239, "ARG_OF_PERICENTER": 292.4785, "MEAN_ANOMALY": 67.4694, "EPHEMERIS_TYPE": 0, "CLASSIFICATION_TYPE": "U", "NORAD_CAT_ID": 41888, "ELEMENT_SET_NO": 999, "REV_AT_EPOCH": 50162, "BSTAR": 0.0003932, "MEAN_MOTION_DOT": 0.00022694, "MEAN_MOTION_DDOT": 0}, "tle": {"line1": "1 41888U 16078E   25357.61012563  .00022694  00000+0  39320-3 0  9999", "line2": "2 41888  34.9467 321.2390 0011741 292.4785  67.4694 15.49854778501623"}}, "geometry": {"type": "Point", "coordinates": [158.61933749916668, -14.049370737020386]}}, {"type": "Feature", "properties": {"norad_id": 41890, "name": "CYGFM07", "group": "weather", "lat": -20.194113406564338, "lon": 158.31842476993825, "alt_km": 417.0871207814953, "timestamp": "2025-12-24T03:53:29.285210+00:00", "meta": {"OBJECT_NAME": "CYGFM07", "OBJECT_ID": "2016-078G", "EPOCH": "2025-12-23T06:52:12.582336", "MEAN_MOTION": 15.50433306, "ECCENTRICITY": 0.00096946, "INCLINATION": 34.9482, "RA_OF_ASC_NODE": 312.2836, "ARG_OF_PERICENTER": 304.5826, "MEAN_ANOMALY": 55.3981, "EPHEMERIS_TYPE": 0, "CLASSIFICATION_TYPE": "U", "NORAD_CAT_ID": 41890, "ELEMENT_SET_NO": 999, "REV_AT_EPOCH": 50159, "BSTAR": 0.00038423067, "MEAN_MOTION_DOT": 0.00022616, "MEAN_MOTION_DDOT": 0}, "tle": {"line1": "1 41890U 16078G   25357.28625674  .00022616  00000+0  38423-3 0  9995", "line2": "2 41890  34.9482 312.2836 0009694 304.5826  55.3981 15.50433306501596"}}, "geometry": {"type": "Point", "coordinates": [158.31842476993825, -20.194113406564338]}}, {"type": "Feature", "properties": {"norad_id": 41891, "name": "CYGFM03", "group": "weather", "lat": 25.037435435071934, "lon": -9.54980272462008, "alt_km": 412.69071173621796, "timestamp": "2025-12-24T03:53:29.285220+00:00", "meta": {"OBJECT_NAME": "CYGFM03", "OBJECT_ID": "2016-078H", "EPOCH": "2025-12-23T04:30:19.896192", "MEAN_MOTION": 15.50323541, "ECCENTRICITY": 0.00094582, "INCLINATION": 34.9438, "RA_OF_ASC_NODE": 314.8551, "ARG_OF_PERICENTER": 291.3131, "MEAN_ANOMALY": 68.6581, "EPHEMERIS_TYPE": 0, "CLASSIFICATION_TYPE": "U", "NORAD_CAT_ID": 41891, "ELEMENT_SET_NO": 999, "REV_AT_EPOCH": 50155, "BSTAR": 0.00038012472, "MEAN_MOTION_DOT": 0.00022283, "MEAN_MOTION_DDOT": 0}, "tle": {"line1": "1 41891U 16078H   25357.18773028  .00022283  00000+0  38012-3 0  9996", "line2": "2 41891  34.9438 314.8551 0009458 291.3131  68.6581 15.50323541501558"}}, "geometry": {"type": "Point", "coordinates": [-9.54980272462008, 25.037435435071934]}}]}